462P/LONEOS-PANSTARRS,e,7.0329,322.7329,4.3204,4.871365,0.0916702,0.57819834,71.3510,09/18.0/2024,2000,g 17.0,4.0
# From MPEC 2024-GJ3
463P/NEOWISE,e,29.2917,283.2139,216.3462,2.974299,0.1921442,0.82571544,103.4344,09/18.0/2024,2000,g 18.0,4.0
# From MPEC 2024-Q20
464P/PANSTARRS,e,21.6699,309.5774,267.6000,4.685500,0.0971785,0.28046246,55.2390,09/18.0/2024,2000,g 10.5,4.0
# From MPEC 2024-NE4
465P/Hill,e,25.8652,217.9917,141.0518,6.019311,0.0667397,0.61354518,33.2126,09/18.0/2024,2000,g 12.5,4.0
# From MPEC 2024-JU4
466P/PANSTARRS,e,12.2771,119.5130,197.1588,4.055562,0.1206778,0.46930319,60.6167,09/18.0/2024,2000,g 14.0,4.0
# From MPEC 2023-T65
467P/LINEAR-Grauer,e,2.4790,43.2661,267.7979,5.829437,0.0700268,0.05499257,46.0109,09/18.0/2024,2000,g  9.0,4.0
# From MPEC 2024-O39
468P/SidingSpring,e,50.4476,356.1237,322.5847,7.122063,0.0518556,0.44536643,15.6483,09/18.0/2024,2000,g 11.5,4.0
# From MPEC 2024-P23
469P/PANSTARRS,e,20.1738,178.9661,43.5106,4.340916,0.1089763,0.30772892,311.3393,09/18.0/2024,2000,g 13.5,4.0
# From MPEC 2024-R10
470P/PANSTARRS,e,8.8447,246.1760,151.8279,4.470391,0.1042763,0.38990838,28.7434,09/18.0/2024,2000,g 15.5,4.0
# From MPEC 2024-GJ3
471P/,e,4.7946,283.3058,94.9153,5.706553,0.0723008,0.62812444,19.7296,09/18.0/2024,2000,g 12.0,4.0
# From MPEC 2024-RQ6
472P/NEAT-LINEAR,e,10.8311,205.9695,218.9248,7.824146,0.0450348,0.56680110,2.9148,09/18.0/2024,2000,g 10.5,4.0
# From MPEC 2024-MB8
473P/NEAT,e,56.9075,22.1852,42.9214,7.969154,0.0438113,0.82358540,8.9707,09/18.0/2024,2000,g 13.5,4.0
# From MPEC 2024-B74
474P/Hogan,e,1.0970,26.7458,11.2622,3.130345,0.1779573,0.18826288,76.5552,09/18.0/2024,2000,g 15.5,4.0
# From MPEC 2024-O39
475P/Spacewatch-LINEAR,e,14.5246,147.3723,40.3915,7.311692,0.0498514,0.44233615,5.4052,09/18.0/2024,2000,g 11.0,4.0
# From MPEC 2024-Q20
476P/PANSTARRS,e,19.0053,57.0597,46.7361,4.781096,0.0942785,0.34674792,357.3096,09/18.0/2024,2000,g 12.5,4.0
# From MPEC 2024-GJ3
477P/PANSTARRS,e,8.9145,59.1570,305.9550,3.004051,0.1892968,0.41746344,50.4168,09/18.0/2024,2000,g 14.5,4.0
# From MPEC 2024-L77
478P/ATLAS,e,12.5248,127.2703,13.1938,3.646329,0.1415534,0.34354700,19.6740,09/18.0/2024,2000,g 13.5,4.0
# From MPEC 2024-PC5
479P/Elenin,e,15.3983,295.8315,263.5248,5.624055,0.0738975,0.77886337,10.0321,09/18.0/2024,2000,g 15.0,4.0
# From MPEC 2024-GJ3
480P/PANSTARRS,e,13.7175,229.9772,214.3095,4.608704,0.0996175,0.24639382,51.1798,09/18.0/2024,2000,g 12.0,4.0
# From MPEC 2024-L77
481P/Lemmon-PANSTARRS,e,6.0827,93.5526,356.7210,4.679309,0.0973714,0.34345797,42.5512,09/18.0/2024,2000,g 13.5,4.0
# From MPEC 2024-JU4
482P/PANSTARRS,e,24.4846,126.0913,339.6806,3.755705,0.1354150,0.49233852,64.1794,09/18.0/2024,2000,g 13.5,4.0
# From MPEC 2024-R10
483P-A/PANSTARRS,e,14.2664,199.7031,48.3637,3.188921,0.1730766,0.22481085,162.2879,09/18.0/2024,2000,g 13.5,4.0
# From MPEC 2024-R10
483P-B/PANSTARRS,e,14.2672,199.7025,48.3535,3.188855,0.1730820,0.22474987,162.3224,09/18.0/2024,2000,g 17.0,4.0
# From MPEC 2024-DD5
484P/Spacewatch,e,14.4753,265.3960,240.7670,3.758007,0.1352906,0.43256794,188.1850,09/18.0/2024,2000,g 16.0,4.0
# From MPEC 2024-JU4
485P/Sheppard-Tholen,e,10.0162,261.6463,196.0324,6.847569,0.0550047,0.41710553,21.4610,09/18.0/2024,2000,g 13.0,4.0
# From MPEC 2024-R10
486P/Leonard,e,2.2095,219.0280,93.9479,3.628937,0.1425722,0.36375728,331.7919,09/18.0/2024,2000,g 14.5,4.0
# From MPC107687
1I/`Oumuamua,h,09/09.4886/2017,122.6778,24.5997,241.6845,1.199252,0.255240,2000,23.0,2.0
# From MPEC 2023-L37
2I/Borisov,h,12/08.5548/2019,44.0527,308.1480,209.1251,3.356633,2.006548,2000,11.0,4.0
